NORAD_CAT_ID,OBJECT_NAME,OBJECT_TYPE,EPOCH,MEAN_MOTION,ECCENTRICITY,INCLINATION,RA_OF_ASC_NODE,ARG_OF_PERICENTER,MEAN_ANOMALY,BSTAR,MEAN_MOTION_DOT,MEAN_MOTION_DDOT,TLE_LINE0,TLE_LINE1,TLE_LINE2,SEMIMAJOR_AXIS,PERIOD,APOGEE,PERIGEE,DECAYED
53263.0,STARLINK-4130,PAYLOAD,2023-12-26 23:23:31,15.08848331,0.0001352,53.215,202.1384,99.5946,260.5199,6.3985e-05,7.31e-06,0.0,0 STARLINK-4130,1 53263U 22086X   23360.97467283  .00000731  00000-0  63985-4 0  9993,2 53263  53.2150 202.1384 0001352  99.5946 260.5199 15.08848331 79559,6917.855,95.437,540.655,538.785,0.0
53263.0,STARLINK-4130,PAYLOAD,2023-12-27 20:03:32,15.0884251,0.0001396,53.2153,198.2714,97.0534,263.0617,0.00012566,1.713e-05,0.0,0 STARLINK-4130,1 53263U 22086X   23361.83579649  .00001713  00000-0  12566-3 0  9998,2 53263  53.2153 198.2714 0001396  97.0534 263.0617 15.08842510 79688,6917.873,95.437,540.703,538.772,0.0
53263.0,STARLINK-4130,PAYLOAD,2023-12-27 23:14:19,15.08841747,0.0001396,53.2153,197.6768,95.9797,264.1354,0.00011258,1.504e-05,0.0,0 STARLINK-4130,1 53263U 22086X   23361.96827665  .00001504  00000-0  11258-3 0  9991,2 53263  53.2153 197.6768 0001396  95.9797 264.1354 15.08841747 79881,6917.875,95.437,540.706,538.774,0.0
53263.0,STARLINK-4130,PAYLOAD,2023-12-28 18:18:56,15.08840497,0.0001417,53.2155,194.1072,100.3614,259.7538,5.2713e-05,5.51e-06,0.0,0 STARLINK-4130,1 53263U 22086X   23362.76315839  .00000551  00000-0  52713-4 0  9998,2 53263  53.2155 194.1072 0001417 100.3614 259.7538 15.08840497 79825,6917.879,95.438,540.724,538.764,0.0
53263.0,STARLINK-4130,PAYLOAD,2023-12-29 18:09:44,15.08838415,0.0001377,53.2156,189.6471,96.4053,263.7096,3.8785e-05,3.29e-06,0.0,0 STARLINK-4130,1 53263U 22086X   23363.75675990  .00000329  00000-0  38785-4 0  9991,2 53263  53.2156 189.6471 0001377  96.4053 263.7096 15.08838415 80154,6917.885,95.438,540.703,538.798,0.0
53263.0,STARLINK-4130,PAYLOAD,2023-12-30 13:14:21,15.08835166,0.0001357,53.2157,186.0788,92.5776,267.5372,5.7452e-05,6.26e-06,0.0,0 STARLINK-4130,1 53263U 22086X   23364.55164331  .00000626  00000-0  57452-4 0  9994,2 53263  53.2157 186.0788 0001357  92.5776 267.5372 15.08835166 80276,6917.895,95.438,540.699,538.821,0.0
53263.0,STARLINK-4130,PAYLOAD,2023-12-30 19:35:54,15.08834885,0.0001323,53.2156,184.8899,85.5904,274.5239,4.3987e-05,4.12e-06,0.0,0 STARLINK-4130,1 53263U 22086X   23364.81660481  .00000412  00000-0  43987-4 0  9991,2 53263  53.2156 184.8899 0001323  85.5904 274.5239 15.08834885 80134,6917.896,95.438,540.676,538.846,0.0
53263.0,STARLINK-4130,PAYLOAD,2023-12-31 19:26:41,15.08840194,0.0001313,53.2156,180.4299,85.8769,274.2373,9.3564e-05,1.201e-05,0.0,0 STARLINK-4130,1 53263U 22086X   23365.81020172  .00001201  00000-0  93564-4 0  9992,2 53263  53.2156 180.4299 0001313  85.8769 274.2373 15.08840194 80463,6917.88,95.438,540.653,538.836,0.0
53263.0,STARLINK-4130,PAYLOAD,2024-01-01 11:20:33,15.08837076,0.0001293,53.2154,177.4565,87.2323,272.8817,6.8633e-05,8.04e-06,0.0,0 STARLINK-4130,1 53263U 22086X   24001.47260530  .00000804  00000-0  68633-4 0  9993,2 53263  53.2154 177.4565 0001293  87.2323 272.8817 15.08837076 80385,6917.889,95.438,540.649,538.86,0.0
53263.0,STARLINK-4130,PAYLOAD,2024-01-01 19:17:28,15.08838003,0.000129,53.2155,175.9696,85.4215,274.6924,6.8305e-05,7.99e-06,0.0,0 STARLINK-4130,1 53263U 22086X   24001.80380516  .00000799  00000-0  68305-4 0  9996,2 53263  53.2155 175.9696 0001290  85.4215 274.6924 15.08838003 80617,6917.886,95.438,540.644,538.859,0.0
53263.0,STARLINK-4130,PAYLOAD,2024-01-02 11:11:19,15.08842218,0.000136,53.2156,172.9962,78.1721,281.9424,5.7777e-05,6.32e-06,0.0,0 STARLINK-4130,1 53263U 22086X   24002.46620363  .00000632  00000-0  57777-4 0  9993,2 53263  53.2156 172.9962 0001360  78.1721 281.9424 15.08842218 80710,6917.874,95.437,540.679,538.798,0.0
53263.0,STARLINK-4130,PAYLOAD,2024-01-02 17:32:52,15.08843619,0.0001349,53.2156,171.8068,78.9552,281.1592,6.6378e-05,7.69e-06,0.0,0 STARLINK-4130,1 53263U 22086X   24002.73116196  .00000769  00000-0  66378-4 0  9995,2 53263  53.2156 171.8068 0001349  78.9552 281.1592 15.08843619 80570,6917.869,95.437,540.668,538.801,0.0
53263.0,STARLINK-4130,PAYLOAD,2024-01-03 14:12:53,15.08839929,0.0001346,53.2157,167.9411,77.2504,282.8638,5.3072e-05,5.57e-06,0.0,0 STARLINK-4130,1 53263U 22086X   24003.59228392  .00000557  00000-0  53072-4 0  9994,2 53263  53.2157 167.9411 0001346  77.2504 282.8638 15.08839929 80887,6917.881,95.438,540.677,538.814,0.0
53263.0,STARLINK-4130,PAYLOAD,2024-01-03 17:23:39,15.08840127,0.0001343,53.2157,167.3464,77.3801,282.7341,5.2545e-05,5.48e-06,0.0,0 STARLINK-4130,1 53263U 22086X   24003.72476373  .00000548  00000-0  52545-4 0  9997,2 53263  53.2157 167.3464 0001343  77.3801 282.7341 15.08840127 80722,6917.88,95.438,540.674,538.816,0.0
53263.0,STARLINK-4130,PAYLOAD,2024-01-04 14:03:40,15.08839247,0.0001349,53.2162,163.4805,86.9568,273.1578,1.6141e-05,-3.1e-07,0.0,0 STARLINK-4130,1 53263U 22086X   24004.58588503 -.00000031  00000-0  16141-4 0  9991,2 53263  53.2162 163.4805 0001349  86.9568 273.1578 15.08839247 81038,6917.883,95.438,540.681,538.814,0.0
53263.0,STARLINK-4130,PAYLOAD,2024-01-04 20:25:12,15.08841425,0.0001355,53.2165,162.29,92.0982,268.0165,1.9786e-05,2.7e-07,0.0,0 STARLINK-4130,1 53263U 22086X   24004.85084302  .00000027  00000-0  19786-4 0  9991,2 53263  53.2165 162.2900 0001355  92.0982 268.0165 15.08841425 80898,6917.876,95.437,540.678,538.804,0.0
53263.0,STARLINK-4130,PAYLOAD,2024-01-05 10:43:41,15.08834691,0.0001341,53.2164,159.6112,86.8088,273.3057,1.7707e-05,-6e-08,0.0,0 STARLINK-4130,1 53263U 22086X   24005.44700864 -.00000006  00000-0  17707-4 0  9994,2 53263  53.2164 159.6112 0001341  86.8088 273.3057 15.08834691 80981,6917.897,95.438,540.689,538.834,0.0
53263.0,STARLINK-4130,PAYLOAD,2024-01-05 13:54:27,15.08834852,0.0001344,53.2165,159.0164,88.446,271.6686,1.8014e-05,-1e-08,0.0,0 STARLINK-4130,1 53263U 22086X   24005.57948889 -.00000001  00000-0  18014-4 0  9996,2 53263  53.2165 159.0164 0001344  88.4460 271.6686 15.08834852 81189,6917.896,95.438,540.691,538.831,0.0
53263.0,STARLINK-4130,PAYLOAD,2024-01-05 17:05:14,15.08835553,0.0001352,53.2165,158.4216,88.4426,271.6721,2.263e-05,7.2e-07,0.0,0 STARLINK-4130,1 53263U 22086X   24005.71196859  .00000072  00000-0  22630-4 0  9990,2 53263  53.2165 158.4216 0001352  88.4426 271.6721 15.08835553 81203,6917.894,95.438,540.694,538.824,0.0
53263.0,STARLINK-4130,PAYLOAD,2024-01-06 10:34:28,15.08833718,0.0001386,53.2168,155.1505,91.0743,269.0408,3.952e-05,3.41e-06,0.0,0 STARLINK-4130,1 53263U 22086X   24006.44061137  .00000341  00000-0  39520-4 0  9996,2 53263  53.2168 155.1505 0001386  91.0743 269.0408 15.08833718 81316,6917.9,95.438,540.723,538.806,0.0
53263.0,STARLINK-4130,PAYLOAD,2024-01-06 18:31:24,15.08838456,0.0001368,53.2166,153.6639,87.0163,273.0986,7.3969e-05,8.89e-06,0.0,0 STARLINK-4130,1 53263U 22086X   24006.77180866  .00000889  00000-0  73969-4 0  9995,2 53263  53.2166 153.6639 0001368  87.0163 273.0986 15.08838456 81181,6917.885,95.438,540.696,538.804,0.0
53263.0,STARLINK-4130,PAYLOAD,2024-01-07 13:36:02,15.08836087,0.0001353,53.2166,150.0963,85.9437,274.171,5.6266e-05,6.08e-06,0.0,0 STARLINK-4130,1 53263U 22086X   24007.56669299  .00000608  00000-0  56266-4 0  9995,2 53263  53.2166 150.0963 0001353  85.9437 274.1710 15.08836087 81485,6917.892,95.438,540.693,538.821,0.0
53263.0,STARLINK-4130,PAYLOAD,2024-01-07 18:22:11,15.08842508,0.0001383,53.2169,149.2039,84.4879,275.6271,0.00010776,1.428e-05,0.0,0 STARLINK-4130,1 53263U 22086X   24007.76540795  .00001428  00000-0  10776-3 0  9992,2 53263  53.2169 149.2039 0001383  84.4879 275.6271 15.08842508 81516,6917.873,95.437,540.694,538.781,0.0
53263.0,STARLINK-4130,PAYLOAD,2024-01-08 13:26:49,15.08841817,0.0001385,53.2171,145.6356,84.7093,275.4057,5.0654e-05,5.18e-06,0.0,0 STARLINK-4130,1 53263U 22086X   24008.56029041  .00000518  00000-0  50654-4 0  9996,2 53263  53.2171 145.6356 0001385  84.7093 275.4057 15.08841817 81639,6917.875,95.437,540.698,538.782,0.0
53263.0,STARLINK-4130,PAYLOAD,2024-01-08 16:37:35,15.0884677,0.0001366,53.2168,145.0415,85.6057,274.5091,9.3179e-05,1.196e-05,0.0,0 STARLINK-4130,1 53263U 22086X   24008.69276627  .00001196  00000-0  93179-4 0  9996,2 53263  53.2168 145.0415 0001366  85.6057 274.5091 15.08846770 81477,6917.86,95.437,540.67,538.78,0.0
53263.0,STARLINK-4130,PAYLOAD,2024-01-09 14:52:59,15.08845632,0.0001363,53.2164,140.8808,96.5011,263.6136,2.0922e-05,4.5e-07,0.0,0 STARLINK-4130,1 53263U 22086X   24009.62012790  .00000045  00000-0  20922-4 0  9997,2 53263  53.2164 140.8808 0001363  96.5011 263.6136 15.08845632 81790,6917.863,95.437,540.671,538.785,0.0
53263.0,STARLINK-4130,PAYLOAD,2024-01-10 08:22:16,15.08815289,0.000167,53.2179,137.6077,81.8296,278.2886,-0.00022547,-3.872e-05,0.0,0 STARLINK-4130,1 53263U 22086X   24010.34880461 -.00003872  00000-0 -22547-3 0  9993,2 53263  53.2179 137.6077 0001670  81.8296 278.2886 15.08815289 81723,6917.956,95.439,540.976,538.666,0.0
53263.0,STARLINK-4130,PAYLOAD,2024-01-10 17:54:33,15.08848646,0.0001411,53.218,135.8233,77.1085,283.0065,7.2251e-05,8.62e-06,0.0,0 STARLINK-4130,1 53263U 22086X   24010.74621683  .00000862  00000-0  72251-4 0  9998,2 53263  53.2180 135.8233 0001411  77.1085 283.0065 15.08848646 81788,6917.854,95.437,540.695,538.743,0.0
53263.0,STARLINK-4130,PAYLOAD,2024-01-11 11:23:46,15.08857085,0.0001167,53.2178,132.5531,84.7442,275.3684,0.00015185,2.131e-05,0.0,0 STARLINK-4130,1 53263U 22086X   24011.47484533  .00002131  00000-0  15185-3 0  9993,2 53263  53.2178 132.5531 0001167  84.7442 275.3684 15.08857085 81899,6917.828,95.436,540.5,538.886,0.0
53263.0,STARLINK-4130,PAYLOAD,2024-01-11 14:34:32,15.08862802,0.0001757,53.218,131.9588,99.4059,260.7132,0.00020762,3.02e-05,0.0,0 STARLINK-4130,1 53263U 22086X   24011.60731892  .00003020  00000-0  20762-3 0  9996,2 53263  53.2180 131.9588 0001757  99.4059 260.7132 15.08862802 82091,6917.811,95.436,540.891,538.46,0.0
